{
  "type": "FeatureCollection",
  "features": [
    {
      "type": "Feature",
      "properties": {
        "norad_id": 66774,
        "name": "TRANSPORTER-15DN",
        "group": "last-30-days",
        "lat": -24.005497139450497,
        "lon": -111.16255898306905,
        "alt_km": 516.2908379420132,
        "timestamp": "2025-12-26T14:28:46.395878+00:00",
        "meta_object_name": "TRANSPORTER-15DN",
        "meta_object_id": "2025-276DN",
        "meta_epoch": "2025-12-26T05:40:37.028352",
        "meta_mean_motion": 15.18632964,
        "meta_eccentricity": 0.00030255,
        "meta_inclination": 97.4409,
        "meta_ra_of_asc_node": 71.8132,
        "meta_arg_of_pericenter": 94.593,
        "meta_mean_anomaly": 265.565,
        "meta_ephemeris_type": 0,
        "meta_classification_type": "U",
        "meta_norad_cat_id": 66774,
        "meta_element_set_no": 999,
        "meta_rev_at_epoch": 417,
        "meta_bstar": 0.00050343342,
        "meta_mean_motion_dot": 0.00010364,
        "meta_mean_motion_ddot": 0,
        "tle_line1": "1 66774U 25276DN  25360.23653968  .00010364  00000+0  50343-3 0  9991",
        "tle_line2": "2 66774  97.4409  71.8132 0003025  94.5930 265.5650 15.18632964  4173"
      },
      "geometry": {
        "type": "Point",
        "coordinates": [
          -111.16255898306905,
          -24.005497139450497
        ]
      }
    },
    {
      "type": "Feature",
      "properties": {
        "norad_id": 66775,
        "name": "PHI 1",
        "group": "last-30-days",
        "lat": -28.99747684818472,
        "lon": -111.99827428140736,
        "alt_km": 517.1685031837114,
        "timestamp": "2025-12-26T14:28:46.395888+00:00",
        "meta_object_name": "PHI 1",
        "meta_object_id": "2025-276DP",
        "meta_epoch": "2025-12-26T05:39:18.106272",
        "meta_mean_motion": 15.1869531,
        "meta_eccentricity": 0.00025549,
        "meta_inclination": 97.4333,
        "meta_ra_of_asc_node": 71.7899,
        "meta_arg_of_pericenter": 65.4438,
        "meta_mean_anomaly": 294.7062,
        "meta_ephemeris_type": 0,
        "meta_classification_type": "U",
        "meta_norad_cat_id": 66775,
        "meta_element_set_no": 999,
        "meta_rev_at_epoch": 417,
        "meta_bstar": 0.00046004327,
        "meta_mean_motion_dot": 9.481e-05,
        "meta_mean_motion_ddot": 0,
        "tle_line1": "1 66775U 25276DP  25360.23562623  .00009481  00000+0  46004-3 0  9996",
        "tle_line2": "2 66775  97.4333  71.7899 0002554  65.4438 294.7062 15.18695310  4170"
      },
      "geometry": {
        "type": "Point",
        "coordinates": [
          -111.99827428140736,
          -28.99747684818472
        ]
      }
    },
    {
      "type": "Feature",
      "properties": {
        "norad_id": 66776,
        "name": "TRANSPORTER-15DQ",
        "group": "last-30-days",
        "lat": -31.593021727371433,
        "lon": -112.4427790050297,
        "alt_km": 517.0908080401132,
        "timestamp": "2025-12-26T14:28:46.395898+00:00",
        "meta_object_name": "TRANSPORTER-15DQ",
        "meta_object_id": "2025-276DQ",
        "meta_epoch": "2025-12-26T05:38:37.798080",
        "meta_mean_motion": 15.18746814,
        "meta_eccentricity": 0.00028,
        "meta_inclination": 97.4372,
        "meta_ra_of_asc_node": 71.8032,
        "meta_arg_of_pericenter": 78.572,
        "meta_mean_anomaly": 281.5829,
        "meta_ephemeris_type": 0,
        "meta_classification_type": "U",
        "meta_norad_cat_id": 66776,
        "meta_element_set_no": 999,
        "meta_rev_at_epoch": 417,
        "meta_bstar": 0.00043958607,
        "meta_mean_motion_dot": 9.069e-05,
        "meta_mean_motion_ddot": 0,
        "tle_line1": "1 66776U 25276DQ  25360.23515970  .00009069  00000+0  43959-3 0  9998",
        "tle_line2": "2 66776  97.4372  71.8032 0002800  78.5720 281.5829 15.18746814  4178"
      },
      "geometry": {
        "type": "Point",
        "coordinates": [
          -112.4427790050297,
          -31.593021727371433
        ]
      }
    },
    {
      "type": "Feature",
      "properties": {
        "norad_id": 66777,
        "name": "TRANSPORTER-15DR",
        "group": "last-30-days",
        "lat": -47.15054340958199,
        "lon": -115.90300956431534,
        "alt_km": 517.0355548067828,
        "timestamp": "2025-12-26T14:28:46.395909+00:00",
        "meta_object_name": "TRANSPORTER-15DR",
        "meta_object_id": "2025-276DR",
        "meta_epoch": "2025-12-26T05:34:33.439872",
        "meta_mean_motion": 15.18997499,
        "meta_eccentricity": 0.00034829,
        "meta_inclination": 97.446,
        "meta_ra_of_asc_node": 71.8366,
        "meta_arg_of_pericenter": 104.9931,
        "meta_mean_anomaly": 255.1689,
        "meta_ephemeris_type": 0,
        "meta_classification_type": "U",
        "meta_norad_cat_id": 66777,
        "meta_element_set_no": 999,
        "meta_rev_at_epoch": 417,
        "meta_bstar": 0.00062389179,
        "meta_mean_motion_dot": 0.00013001,
        "meta_mean_motion_ddot": 0,
        "tle_line1": "1 66777U 25276DR  25360.23233148  .00013001  00000+0  62389-3 0  9992",
        "tle_line2": "2 66777  97.4460  71.8366 0003482 104.9931 255.1689 15.18997499  4170"
      },
      "geometry": {
        "type": "Point",
        "coordinates": [
          -115.90300956431534,
          -47.15054340958199
        ]
      }
    },
    {
      "type": "Feature",
      "properties": {
        "norad_id": 66778,
        "name": "TRANSPORTER-15DS",
        "group": "last-30-days",
        "lat": 41.59563799555847,
        "lon": 65.44202123301478,
        "alt_km": 510.82493737996265,
        "timestamp": "2025-12-26T14:28:46.395919+00:00",
        "meta_object_name": "TRANSPORTER-15DS",
        "meta_object_id": "2025-276DS",
        "meta_epoch": "2025-12-18T19:26:21.991200",
        "meta_mean_motion": 15.16535337,
        "meta_eccentricity": 0.00032319,
        "meta_inclination": 97.4427,
        "meta_ra_of_asc_node": 64.4586,
        "meta_arg_of_pericenter": 41.3734,
        "meta_mean_anomaly": 318.7744,
        "meta_ephemeris_type": 0,
        "meta_classification_type": "U",
        "meta_norad_cat_id": 66778,
        "meta_element_set_no": 999,
        "meta_rev_at_epoch": 304,
        "meta_bstar": 0.00025483693,
        "meta_mean_motion_dot": 4.904e-05,
        "meta_mean_motion_ddot": 0,
        "tle_line1": "1 66778U 25276DS  25352.80997675  .00004904  00000+0  25484-3 0  9996",
        "tle_line2": "2 66778  97.4427  64.4586 0003231  41.3734 318.7744 15.16535337  3043"
      },
      "geometry": {
        "type": "Point",
        "coordinates": [
          65.44202123301478,
          41.59563799555847
        ]
      }
    },
    {
      "type": "Feature",
      "properties": {
        "norad_id": 66791,
        "name": "STARLINK-35867",
        "group": "last-30-days",
        "lat": 42.183371546884075,
        "lon": -87.23117845331373,
        "alt_km": 438.4725034053481,
        "timestamp": "2025-12-26T14:28:46.395933+00:00",
        "meta_object_name": "STARLINK-35867",
        "meta_object_id": "2025-278A",
        "meta_epoch": "2025-12-26T06:00:02.999808",
        "meta_mean_motion": 15.40639701,
        "meta_eccentricity": 0.00015163,
        "meta_inclination": 43.0004,
        "meta_ra_of_asc_node": 171.3304,
        "meta_arg_of_pericenter": 289.09,
        "meta_mean_anomaly": 9.0963,
        "meta_ephemeris_type": 0,
        "meta_classification_type": "U",
        "meta_norad_cat_id": 66791,
        "meta_element_set_no": 999,
        "meta_rev_at_epoch": 513,
        "meta_bstar": 0.000683242,
        "meta_mean_motion_dot": 0.00028286,
        "meta_mean_motion_ddot": 0,
        "tle_line1": "1 66791U 25278A   25360.25003472  .00028286  00000+0  68324-3 0  9993",
        "tle_line2": "2 66791  43.0004 171.3304 0001516 289.0900   9.0963 15.40639701  5134"
      },
      "geometry": {
        "type": "Point",
        "coordinates": [
          -87.23117845331373,
          42.183371546884075
        ]
      }
    },
    {
      "type": "Feature",
      "properties": {
        "norad_id": 66792,
        "name": "STARLINK-35990",
        "group": "last-30-days",
        "lat": 13.047401821336797,
        "lon": -25.25199607435837,
        "alt_km": 413.30565389007006,
        "timestamp": "2025-12-26T14:28:46.395946+00:00",
        "meta_object_name": "STARLINK-35990",
        "meta_object_id": "2025-278B",
        "meta_epoch": "2025-12-26T06:00:02.999808",
        "meta_mean_motion": 15.50525988,
        "meta_eccentricity": 0.00017084,
        "meta_inclination": 43.0004,
        "meta_ra_of_asc_node": 171.2145,
        "meta_arg_of_pericenter": 263.5899,
        "meta_mean_anomaly": 82.6524,
        "meta_ephemeris_type": 0,
        "meta_classification_type": "U",
        "meta_norad_cat_id": 66792,
        "meta_element_set_no": 999,
        "meta_rev_at_epoch": 513,
        "meta_bstar": 0.00091370367,
        "meta_mean_motion_dot": 0.00053527,
        "meta_mean_motion_ddot": 0,
        "tle_line1": "1 66792U 25278B   25360.25003472  .00053527  00000+0  91370-3 0  9997",
        "tle_line2": "2 66792  43.0004 171.2145 0001708 263.5899  82.6524 15.50525988  5136"
      },
      "geometry": {
        "type": "Point",
        "coordinates": [
          -25.25199607435837,
          13.047401821336797
        ]
      }
    }
  ]
}